MEAN_MOTION;ECCENTRICITY;INCLINATION;RA_OF_ASC_NODE;ARG_OF_PERICENTER;MEAN_ANOMALY;BSTAR;MEAN_MOTION_DOT;MEAN_MOTION_DDOT;TYPE
14.54720633;0.0002663;47.0072;325.7393;297.5105;62.5508;3.1688E-5;-2.9E-7;0;Orbcomm
14.54720729;0.0002656;47.0071;323.4814;299.2945;60.7673;3.0665E-5;-3.3E-7;0;Orbcomm
14.54720506;0.00027;47.0069;320.256;302.1326;57.9296;4.1059E-6;-1.48E-6;0;Orbcomm
14.54720605;0.0002649;47.0067;317.3529;304.1391;55.9242;4.4136E-6;-1.47E-6;0;Orbcomm
14.54720858;0.0002647;47.0067;315.4175;306.4094;53.6546;4.7097E-6;-1.45E-6;0;Orbcomm
14.54720899;0.0002624;47.0066;312.5143;308.6339;51.431;5.4162E-6;-1.42E-6;0;Orbcomm
14.54721143;0.0002606;47.0067;311.5467;308.6133;51.4518;4.9268E-6;-1.44E-6;0;Orbcomm
14.54721313;0.0002583;47.0065;307.6758;311.9116;48.1548;5.6353E-6;-1.41E-6;0;Orbcomm
14.54721412;0.0002575;47.0064;307.0308;312.9078;47.159;5.0638E-6;-1.44E-6;0;Orbcomm
14.547215;0.0002535;47.0063;303.1598;315.6789;44.3892;4.7007E-6;-1.45E-6;0;Orbcomm
14.54722249;0.0002438;47.0061;297.6759;319.5787;40.4916;3.4656E-5;-1.6E-7;0;Orbcomm
14.54722565;0.0002384;47.006;292.8373;323.3838;36.6883;3.4518E-5;-1.7E-7;0;Orbcomm
14.54722811;0.0002332;47.0058;288.3212;327.0017;33.0722;3.1649E-5;-2.9E-7;0;Orbcomm
14.5472293;0.0002305;47.0058;286.7084;328.2919;31.7826;3.2635E-5;-2.5E-7;0;Orbcomm
14.547232;0.0002276;47.0057;282.8375;331.4583;28.6176;3.3682E-5;-2.0E-7;0;Orbcomm
14.54723416;0.0002229;47.0056;279.6116;333.8771;26.2001;3.4477E-5;-1.7E-7;0;Orbcomm
14.54723618;0.0002201;47.0055;277.6761;335.5032;24.5747;3.7574E-5;-3.0E-8;0;Orbcomm
14.54723804;0.0002168;47.0055;275.0954;337.4765;22.6023;3.8396E-5;0;0;Orbcomm
14.54724109;0.0002105;47.0055;270.5792;341.1525;18.9281;3.96E-5;5.0E-8;0;Orbcomm
14.54724278;0.0002077;47.0055;268.6438;342.9341;17.1473;4.0749E-5;1.0E-7;0;Orbcomm
14.54724458;0.0002039;47.0054;265.4179;345.7568;14.3259;3.9778E-5;6.0E-8;0;Orbcomm
14.54724516;0.0002021;47.0055;264.4502;346.5957;13.4873;3.9969E-5;7.0E-8;0;Orbcomm
14.54724537;0.0002017;47.0055;264.1276;346.9383;13.1448;3.9963E-5;7.0E-8;0;Orbcomm
14.54724735;0.0001961;47.0055;260.5792;349.8788;10.2057;3.7662E-5;-3.0E-8;0;Orbcomm
14.54724818;0.0001953;47.0055;259.6115;350.8803;9.2046;3.8693E-5;2.0E-8;0;Orbcomm
14.54725145;0.0001875;47.0056;254.7729;355.1625;4.9241;3.7654E-5;-3.0E-8;0;Orbcomm
14.54725181;0.0001871;47.0056;254.4503;355.5095;4.5772;3.7979E-5;-2.0E-8;0;Orbcomm
14.54725459;0.0001798;47.0056;249.9341;359.579;0.5092;3.5922E-5;-1.0E-7;0;Orbcomm
14.54725491;0.0001793;47.0056;249.6116;359.8447;0.2436;3.5891E-5;-1.1E-7;0;Orbcomm
14.54725657;0.0001757;47.0056;247.0309;2.1111;357.978;3.4914E-5;-1.5E-7;0;Orbcomm
14.54725908;0.0001671;47.0056;242.1923;6.8791;353.2116;3.1799E-5;-2.8E-7;0;Orbcomm
14.5472597;0.0001654;47.0056;240.9021;8.0178;352.0732;3.0898E-5;-3.2E-7;0;Orbcomm
14.54726171;0.0001612;47.0056;237.3537;11.8611;348.2311;3.0264E-5;-3.5E-7;0;Orbcomm
14.54726231;0.0001601;47.0056;236.3861;12.9406;347.1519;3.0785E-5;-3.3E-7;0;Orbcomm
14.54726427;0.0001556;47.0057;232.5151;17.2447;342.849;2.9377E-5;-3.9E-7;0;Orbcomm
14.54726743;0.0001496;47.0057;227.6766;22.6361;337.4589;3.1806E-5;-2.8E-7;0;Orbcomm
14.54726778;0.0001491;47.0057;227.0315;23.4061;336.6891;3.2186E-5;-2.6E-7;0;Orbcomm
14.5472702;0.0001431;47.0057;223.1604;27.7449;332.3511;3.3403E-5;-2.1E-7;0;Orbcomm
14.54727085;0.000142;47.0057;221.8702;29.1232;330.9731;3.3284E-5;-2.2E-7;0;Orbcomm
14.54727359;0.000136;47.0057;217.3542;34.5721;325.5252;3.421E-5;-1.8E-7;0;Orbcomm
14.54727473;0.0001336;47.0058;215.4188;36.6074;323.4901;3.447E-5;-1.7E-7;0;Orbcomm
14.54727615;0.0001314;47.0058;213.4833;39.1904;320.9075;3.5346E-5;-1.3E-7;0;Orbcomm
14.54727962;0.0001258;47.0058;209.2899;44.4402;315.6583;3.8215E-5;0;0;Orbcomm
14.54728331;0.0001207;47.0059;204.4514;50.9036;309.1955;3.8671E-5;2.0E-8;0;Orbcomm
14.5472873;0.0001172;47.0059;199.9355;57.3594;302.7403;4.0414E-5;9.0E-8;0;Orbcomm
14.5472909;0.0001135;47.0059;195.4195;63.9177;296.1824;4.02E-5;8.0E-8;0;Orbcomm
14.54729126;0.0001134;47.0058;195.097;64.3454;295.7547;4.0621E-5;1.0E-7;0;Orbcomm
14.54729446;0.0001103;47.0058;190.5811;71.0685;289.0318;3.8347E-5;0;0;Orbcomm
14.54729525;0.00011;47.0057;189.6134;72.2801;287.8204;3.8428E-5;1.0E-8;0;Orbcomm
14.54729714;0.0001082;47.0056;185.7425;78.7844;281.3162;3.5237E-5;-1.3E-7;0;Orbcomm
14.54729757;0.0001083;47.0056;185.0974;79.7935;280.3071;3.5223E-5;-1.3E-7;0;Orbcomm
14.54729956;0.0001069;47.0055;181.2265;86.4622;273.6384;3.3561E-5;-2.0E-7;0;Orbcomm
14.54730168;0.0001066;47.0053;176.0653;95.3374;264.7632;3.0851E-5;-3.2E-7;0;Orbcomm
14.54730369;0.0001067;47.0053;171.2267;102.6631;257.4372;2.9668E-5;-3.7E-7;0;Orbcomm
14.54730469;0.0001071;47.0053;167.3558;108.8555;251.2445;2.7211E-5;-4.8E-7;0;Orbcomm
14.54730631;0.0001093;47.0053;162.5171;116.499;243.6006;2.5546E-5;-5.5E-7;0;Orbcomm
14.54730636;0.000109;47.0053;161.872;117.2176;242.882;2.4943E-5;-5.8E-7;0;Orbcomm
14.54730755;0.0001112;47.0052;157.6785;123.78;236.319;2.3187E-5;-6.5E-7;0;Orbcomm
14.54730756;0.000111;47.0052;157.3559;124.1312;235.9678;2.271E-5;-6.7E-7;0;Orbcomm
14.54730862;0.0001142;47.0052;152.8398;131.1769;228.9214;1.9691E-5;-8.0E-7;0;Orbcomm
14.54730865;0.0001142;47.0052;152.5172;131.6161;228.4821;1.9111E-5;-8.3E-7;0;Orbcomm
14.54730921;0.0001178;47.0052;148.3238;137.3475;222.75;1.502E-5;-1.01E-6;0;Orbcomm
14.54730983;0.0001191;47.0051;145.7431;140.9866;219.1104;1.4196E-5;-1.04E-6;0;Orbcomm
14.54731011;0.0001213;47.0051;143.8077;143.4755;216.6212;1.2775E-5;-1.1E-6;0;Orbcomm
14.54731078;0.0001248;47.005;139.2916;149.3378;210.7579;1.0649E-5;-1.2E-6;0;Orbcomm
14.54731169;0.0001303;47.0049;134.1303;155.4038;204.6909;9.1261E-6;-1.26E-6;0;Orbcomm
14.54731169;0.0001303;47.0049;134.1303;155.4038;204.6909;9.1261E-6;-1.26E-6;0;Orbcomm
14.54731275;0.0001352;47.0049;129.2915;160.9875;199.1059;9.8096E-6;-1.23E-6;0;Orbcomm
14.5473139;0.000141;47.0049;124.7753;166.1858;193.9065;1.129E-5;-1.17E-6;0;Orbcomm
14.54731473;0.0001452;47.005;121.5493;169.8568;190.2345;1.1799E-5;-1.15E-6;0;Orbcomm
14.54731485;0.000146;47.005;120.2591;170.8954;189.1957;1.2019E-5;-1.14E-6;0;Orbcomm
14.54731539;0.0001505;47.0051;116.7107;174.6968;185.3932;1.1596E-5;-1.15E-6;0;Orbcomm
14.54731575;0.0001518;47.0051;115.4204;175.8395;184.2502;1.207E-5;-1.13E-6;0;Orbcomm
14.54731648;0.0001574;47.0053;110.9043;180.2576;179.8307;1.1372E-5;-1.16E-6;0;Orbcomm
14.54731724;0.0001652;47.0055;103.8075;186.9009;173.1852;8.4759E-6;-1.29E-6;0;Orbcomm
14.54731755;0.0001666;47.0056;102.8399;187.701;172.3849;8.483E-6;-1.29E-6;0;Orbcomm
14.54731806;0.0001672;47.0056;101.8722;188.4446;171.641;9.6028E-6;-1.24E-6;0;Orbcomm
14.54731912;0.0001728;47.0057;97.0336;192.6548;167.4293;8.712E-6;-1.28E-6;0;Orbcomm
14.54731968;0.0001761;47.0058;94.4529;194.9427;165.1406;8.0387E-6;-1.31E-6;0;Orbcomm
14.54732009;0.0001773;47.0059;92.5175;196.2495;163.8332;8.1709E-6;-1.3E-6;0;Orbcomm
14.54732063;0.0001805;47.006;89.9369;198.5457;161.5361;8.0399E-6;-1.31E-6;0;Orbcomm
14.54732078;0.000182;47.006;88.9692;199.2396;160.842;7.6521E-6;-1.33E-6;0;Orbcomm
14.5473209;0.0001826;47.006;88.0015;199.9545;160.1268;7.6511E-6;-1.33E-6;0;Orbcomm
14.54732132;0.0001872;47.0062;84.1305;203.0003;157.0798;6.8047E-6;-1.36E-6;0;Orbcomm
14.54732152;0.0001878;47.0062;83.1629;203.7951;156.2847;6.7445E-6;-1.36E-6;0;Orbcomm
14.54732177;0.0001907;47.0063;79.292;206.4854;153.5933;6.1408E-6;-1.39E-6;0;Orbcomm
14.54732216;0.0001937;47.0064;76.0662;209.0597;151.018;6.2199E-6;-1.39E-6;0;Orbcomm
14.54732237;0.0001951;47.0065;74.4534;210.2229;149.8543;6.3667E-6;-1.38E-6;0;Orbcomm
14.54732344;0.0001999;47.0067;69.6148;213.6489;146.4268;7.9847E-6;-1.31E-6;0;Orbcomm
14.54732469;0.000204;47.0069;64.7763;216.9804;143.094;9.6411E-6;-1.24E-6;0;Orbcomm
14.54732622;0.000208;47.0071;60.2604;220.243;139.83;1.1892E-5;-1.14E-6;0;Orbcomm
14.54732766;0.0002111;47.0073;57.0347;222.5623;137.5097;1.4061E-5;-1.05E-6;0;Orbcomm
14.54732909;0.0002121;47.0073;55.7446;223.5109;136.5608;1.7716E-5;-8.9E-7;0;Orbcomm
14.54732935;0.0002121;47.0073;55.422;223.6261;136.4456;1.7997E-5;-8.8E-7;0;Orbcomm
14.54733189;0.0002152;47.0074;50.9062;226.7513;133.3192;2.0134E-5;-7.9E-7;0;Orbcomm
14.54733351;0.0002181;47.0075;47.6806;229.068;131.0016;2.0844E-5;-7.6E-7;0;Orbcomm
14.54733779;0.0002205;47.0075;43.1647;231.8696;128.1989;2.7709E-5;-4.6E-7;0;Orbcomm
14.54733981;0.0002212;47.0075;41.8744;232.6395;127.4288;3.2314E-5;-2.6E-7;0;Orbcomm
14.54734177;0.0002239;47.0076;38.3261;234.981;125.0864;3.036E-5;-3.4E-7;0;Orbcomm
14.54734322;0.0002239;47.0076;37.036;235.8015;124.2657;3.2807E-5;-2.4E-7;0;Orbcomm
14.54734518;0.0002264;47.0076;33.8102;237.9413;122.1252;3.1861E-5;-2.8E-7;0;Orbcomm
14.5473486;0.000229;47.0076;29.2943;240.9679;119.0976;3.3212E-5;-2.2E-7;0;Orbcomm
14.54734898;0.0002296;47.0077;28.9718;241.2127;118.8527;3.3687E-5;-2.0E-7;0;Orbcomm
14.54735196;0.000231;47.0077;24.4559;243.9956;116.0691;3.303E-5;-2.3E-7;0;Orbcomm
14.54735299;0.0002311;47.0077;23.1657;244.7653;115.2991;3.385E-5;-1.9E-7;0;Orbcomm
14.54735529;0.0002328;47.0077;19.6174;247.0225;113.0414;3.358E-5;-2.1E-7;0;Orbcomm
14.54735598;0.0002328;47.0077;18.6498;247.6698;112.3939;3.3913E-5;-1.9E-7;0;Orbcomm
14.54735804;0.0002345;47.0077;15.1015;249.7831;110.2801;3.2759E-5;-2.4E-7;0;Orbcomm
14.54736088;0.000236;47.0077;10.2631;252.6078;107.4548;3.1493E-5;-3.0E-7;0;Orbcomm
14.54736144;0.0002358;47.0077;9.2955;253.2216;106.841;3.148E-5;-3.0E-7;0;Orbcomm
14.54736336;0.0002372;47.0077;5.7472;255.2859;104.7763;3.0463E-5;-3.4E-7;0;Orbcomm
14.54736555;0.0002382;47.0076;1.2313;258.0412;102.0205;2.928E-5;-3.9E-7;0;Orbcomm
14.54736562;0.0002383;47.0076;0.9088;258.2738;101.7879;2.9199E-5;-3.9E-7;0;Orbcomm
14.54736781;0.0002391;47.0075;356.3928;261.1502;98.9112;2.8046E-5;-4.4E-7;0;Orbcomm
14.54736995;0.0002394;47.0074;351.2317;264.7325;95.3286;2.712E-5;-4.8E-7;0;Orbcomm
14.54737013;0.0002393;47.0073;350.9091;264.9762;95.0849;2.7132E-5;-4.8E-7;0;Orbcomm
14.54737208;0.0002397;47.0073;346.7157;267.2199;92.8411;2.7103E-5;-4.9E-7;0;Orbcomm
14.54737219;0.0002397;47.0073;346.0706;267.7947;92.2662;2.6297E-5;-5.2E-7;0;Orbcomm
